COSMOS 2058             
1 20465U 90010A   26179.58412498  .00002646  00000+0  15204-3 0  9995
2 20465  82.4697 298.1157 0008623 315.7339  44.3201 15.12084616958996
SL-14 R/B               
1 20466U 90010B   26179.43082774  .00000373  00000+0  42289-4 0  9999
2 20466  82.5021 163.3854 0018345 297.1380  62.7964 14.83653132944905
SL-14 R/B               
1 20511U 90018B   26179.55527465  .00000386  00000+0  45287-4 0  9997
2 20511  82.5219 119.4826 0017707  87.4013 272.9228 14.82223575939006
HST                     
1 20580U 90037B   26179.55204950  .00006207  00000+0  19454-3 0  9999
2 20580  28.4733   2.8956 0001396 281.6307  78.4132 15.30877093790318
SL-16 R/B               
1 20625U 90046B   26178.97598986 -.00000231  00000+0 -94406-4 0  9993
2 20625  70.9998  66.2905 0012653 144.5864 215.6101 14.15025969863999
COSMOS 2084             
1 20663U 90055A   26179.61386891  .00001937  00000+0  14538-3 0  9996
2 20663  62.7911 317.0879 0006267 298.3839  61.6629 15.06162535953026
SL-6 R/B(2)             
1 20666U 90055D   26179.48500339  .00001342  00000+0  10954-3 0  9997
2 20666  62.7808 236.9305 0042490   6.6903 353.4754 15.04035480954856
SL-8 R/B                
1 20775U 90078B   26179.39037644  .00026954  00000+0  76167-3 0  9991
2 20775  82.9011 151.5180 0347774   0.6595 359.5009 14.92867614825792
SL-8 R/B                
1 21088U 91006B   26179.25959664  .00000064  00000+0  48235-4 0  9991
2 21088  82.9425  87.7971 0023890  85.3498  27.0740 13.77506888779296
OKEAN-3                 
1 21397U 91039A   26179.63818328  .00001773  00000+0  12162-3 0  9990
2 21397  82.5161 229.2780 0012719 315.5138  44.5067 15.05376181881722
COSMOS 2151             
1 21422U 91042A   26179.59680292  .00001628  00000+0  12700-3 0  9992
2 21422  82.4966 336.6688 0013370  49.3935 310.8450 15.00469749879825
SL-14 R/B               
1 21423U 91042B   26179.56420157  .00000332  00000+0  38896-4 0  9998
2 21423  82.4937 116.2272 0015668 233.8179 126.1587 14.81909100869496
ERS-1                   
1 21574U 91050A   26179.63354606  .00000302  00000+0  11109-3 0  9991
2 21574  98.7794 200.6112 0030948 231.7450 128.0952 14.39523956831694
ARIANE 40 R/B           
1 21610U 91050F   26179.55988217  .00000261  00000+0  90350-4 0  9994
2 21610  98.1870 227.5336 0004486  96.8758 263.2943 14.42963238834981
INTERCOSMOS 25          
1 21819U 91086A   26179.58459136  .00000650  00000+0  12872-3 0  9994
2 21819  82.6037 242.9131 1484001 237.7815 107.0926 12.12214454510122
SL-8 R/B                
1 21876U 92008B   26179.49044516  .00000149  00000+0  13750-3 0  9993
2 21876  82.9259 185.3831 0034569 182.6965 341.4918 13.75979899724655
SL-8 R/B                
1 21938U 92020B   26179.61026578  .00000064  00000+0  50376-4 0  9990
2 21938  82.9302  71.3727 0028930 351.0211  23.9026 13.75549933716387
USA 81                  
1 21949U 92023A   26179.45183937  .00000155  00000+0  50081-4 0  9994
2 21949  85.0068  67.5059 0002603  75.2352 284.9129 14.32400937110641
COSMOS 2219             
1 22219U 92076A   26179.36712701  .00000246  00000+0  15355-3 0  9995
2 22219  71.0601 146.7002 0017189  25.1646 335.0311 14.14106990734020
SL-16 R/B               
1 22220U 92076B   26179.61154297 -.00000191  00000+0 -71146-4 0  9997
2 22220  71.0013 314.7145 0015026 283.6547 154.8794 14.16875321737548
COSMOS 2221             
1 22236U 92080A   26179.43875921  .00001423  00000+0  12258-3 0  9998
2 22236  82.5031 172.9843 0014311 173.4480 186.6932 14.96560997797359
SL-16 R/B               
1 22285U 92093B   26179.26689463  .00000251  00000+0  15303-3 0  9993
2 22285  71.0208 132.1317 0003372 167.3255 192.7954 14.15461872728802
COSMOS 2228             
1 22286U 92094A   26179.57986186  .00001792  00000+0  15075-3 0  9998
2 22286  82.5183 131.1304 0016105 290.9791  68.9708 14.97625275792657
SL-16 R/B               
1 22566U 93016B   26179.60148845 -.00000208  00000+0 -82355-4 0  9999
2 22566  71.0088 342.2325 0009441 167.1280 193.0085 14.15315327717868
COSMOS 2242             
1 22626U 93024A   26179.41083399  .00001680  00000+0  14382-3 0  9993
2 22626  82.5183 160.8045 0014546 295.5746  64.3972 14.96936388796953
SL-16 R/B               
1 22803U 93059B   26179.57102730  .00000168  00000+0  10702-3 0  9998
2 22803  70.9894 137.2971 0015751  35.1098 325.1060 14.17247762695243
ARIANE 40 R/B           
1 22830U 93061H   26179.58737200  .00000172  00000+0  78652-4 0  9992
2 22830  98.4815 246.2075 0009797 320.9094  39.1382 14.32912172709988
COSMOS 2278             
1 23087U 94023A   26179.63326261 -.00000200  00000+0 -79883-4 0  9994
2 23087  71.0551 302.9772 0010418 229.8740 130.1471 14.14397797660491
SL-16 R/B               
1 23088U 94023B   26179.48854184 -.00000140  00000+0 -47542-4 0  9998
2 23088  70.9984 198.1976 0001980 176.9840 183.1295 14.15027349661765
SL-16 R/B               
1 23343U 94074B   26179.65458196  .00000394  00000+0  59244-4 0  9991
2 23343  97.6988 205.8977 0005740 208.1900 265.7134 14.79511496703654
