OBJECT_NAME,OBJECT_ID,EPOCH,MEAN_MOTION,ECCENTRICITY,INCLINATION,RA_OF_ASC_NODE,ARG_OF_PERICENTER,MEAN_ANOMALY,EPHEMERIS_TYPE,CLASSIFICATION_TYPE,NORAD_CAT_ID,ELEMENT_SET_NO,REV_AT_EPOCH,BSTAR,MEAN_MOTION_DOT,MEAN_MOTION_DDOT
COSMOS 2058,1990-010A,2026-06-28T14:01:08.398272,15.12084616,.00086235,82.4697,298.1157,315.7339,44.3201,0,U,20465,999,95899,.15204407E-3,.2646E-4,0
SL-14 R/B,1990-010B,2026-06-28T10:20:23.516736,14.83653132,.0018345,82.5021,163.3854,297.1380,62.7964,0,U,20466,999,94490,.42288707E-4,.373E-5,0
SL-14 R/B,1990-018B,2026-06-28T13:19:35.729760,14.82223575,.0017707,82.5219,119.4826,87.4013,272.9228,0,U,20511,999,93900,.45287176E-4,.386E-5,0
HST,1990-037B,2026-06-28T13:14:57.076800,15.30877093,.00013961,28.4733,2.8956,281.6307,78.4132,0,U,20580,999,79031,.19453691E-3,.6207E-4,0
SL-16 R/B,1990-046B,2026-06-27T23:25:25.523904,14.15025969,.00126534,70.9998,66.2905,144.5864,215.6101,0,U,20625,999,86399,-.94406297E-4,-.231E-5,0
COSMOS 2084,1990-055A,2026-06-28T14:43:58.273824,15.06162535,.00062673,62.7911,317.0879,298.3839,61.6629,0,U,20663,999,95302,.14537952E-3,.1937E-4,0
SL-6 R/B(2),1990-055D,2026-06-28T11:38:24.292896,15.04035480,.00424905,62.7808,236.9305,6.6903,353.4754,0,U,20666,999,95485,.10953548E-3,.1342E-4,0
SL-8 R/B,1990-078B,2026-06-28T09:22:08.524416,14.92867614,.03477741,82.9011,151.5180,0.6595,359.5009,0,U,20775,999,82579,.76166607E-3,.26954E-3,0
SL-8 R/B,1991-006B,2026-06-28T06:13:49.149696,13.77506888,.00238905,82.9425,87.7971,85.3498,27.0740,0,U,21088,999,77929,.48235387E-4,.64E-6,0
OKEAN-3,1991-039A,2026-06-28T15:18:59.035392,15.05376181,.00127197,82.5161,229.2780,315.5138,44.5067,0,U,21397,999,88172,.12162442E-3,.1773E-4,0
COSMOS 2151,1991-042A,2026-06-28T14:19:23.772288,15.00469749,.00133708,82.4966,336.6688,49.3935,310.8450,0,U,21422,999,87982,.12700205E-3,.1628E-4,0
SL-14 R/B,1991-042B,2026-06-28T13:32:27.015648,14.81909100,.00156688,82.4937,116.2272,233.8179,126.1587,0,U,21423,999,86949,.38895504E-4,.332E-5,0
ERS-1,1991-050A,2026-06-28T15:12:18.379584,14.39523956,.00309485,98.7794,200.6112,231.7450,128.0952,0,U,21574,999,83169,.11108962E-3,.302E-5,0
ARIANE 40 R/B,1991-050F,2026-06-28T13:26:13.819488,14.42963238,.00044861,98.1870,227.5336,96.8758,263.2943,0,U,21610,999,83498,.90349822E-4,.261E-5,0
INTERCOSMOS 25,1991-086A,2026-06-28T14:01:48.693504,12.12214454,.14840011,82.6037,242.9131,237.7815,107.0926,0,U,21819,999,51012,.12871508E-3,.65E-5,0
SL-8 R/B,1992-008B,2026-06-28T11:46:14.461824,13.75979899,.0034569,82.9259,185.3831,182.6965,341.4918,0,U,21876,999,72465,.13749583E-3,.149E-5,0
SL-8 R/B,1992-020B,2026-06-28T14:38:46.963392,13.75549933,.00289302,82.9302,71.3727,351.0211,23.9026,0,U,21938,999,71638,.5037613E-4,.64E-6,0
USA 81,1992-023A,2026-06-28T10:50:38.921568,14.32400937,.00026038,85.0068,67.5059,75.2352,284.9129,0,U,21949,999,11064,.50081179E-4,.155E-5,0
COSMOS 2219,1992-076A,2026-06-28T08:48:39.773664,14.14106990,.00171894,71.0601,146.7002,25.1646,335.0311,0,U,22219,999,73402,.15355242E-3,.246E-5,0
SL-16 R/B,1992-076B,2026-06-28T14:40:37.312608,14.16875321,.00150262,71.0013,314.7145,283.6547,154.8794,0,U,22220,999,73754,-.71146171E-4,-.191E-5,0
COSMOS 2221,1992-080A,2026-06-28T10:31:48.795744,14.96560997,.00143115,82.5031,172.9843,173.4480,186.6932,0,U,22236,999,79735,.12258097E-3,.1423E-4,0
SL-16 R/B,1992-093B,2026-06-28T06:24:19.696032,14.15461872,.00033726,71.0208,132.1317,167.3255,192.7954,0,U,22285,999,72880,.15302505E-3,.251E-5,0
COSMOS 2228,1992-094A,2026-06-28T13:55:00.064704,14.97625275,.00161054,82.5183,131.1304,290.9791,68.9708,0,U,22286,999,79265,.1507548E-3,.1792E-4,0
SL-16 R/B,1993-016B,2026-06-28T14:26:08.602080,14.15315327,.00094411,71.0088,342.2325,167.1280,193.0085,0,U,22566,999,71786,-.82354624E-4,-.208E-5,0
COSMOS 2242,1993-024A,2026-06-28T09:51:36.056736,14.96936388,.00145461,82.5183,160.8045,295.5746,64.3972,0,U,22626,999,79695,.14381574E-3,.168E-4,0
SL-16 R/B,1993-059B,2026-06-28T13:42:16.758720,14.17247762,.00157519,70.9894,137.2971,35.1098,325.1060,0,U,22803,999,69524,.10702342E-3,.168E-5,0
ARIANE 40 R/B,1993-061H,2026-06-28T14:05:48.940800,14.32912172,.00097975,98.4815,246.2075,320.9094,39.1382,0,U,22830,999,70998,.78651862E-4,.172E-5,0
COSMOS 2278,1994-023A,2026-06-28T15:11:53.889504,14.14397797,.00104183,71.0551,302.9772,229.8740,130.1471,0,U,23087,999,66049,-.79883189E-4,-.2E-5,0
SL-16 R/B,1994-023B,2026-06-28T11:43:30.014976,14.15027349,.00019801,70.9984,198.1976,176.9840,183.1295,0,U,23088,999,66176,-.4754247E-4,-.14E-5,0
SL-16 R/B,1994-074B,2026-06-28T15:42:35.881344,14.79511496,.00057405,97.6988,205.8977,208.1900,265.7134,0,U,23343,999,70365,.59244037E-4,.394E-5,0
